{"type": "FeatureCollection", "features": [ {"type": "Feature", "properties": {"norad_id": 17070, "name": "POLAR BEAR", "group": "nnss", "lat": 70.88048358807222, "lon": 2.3493365062481297, "alt_km": 944.399462027679, "timestamp": "2025-12-20T16:47:36.555192+00:00", "meta": {"OBJECT_NAME": "POLAR BEAR", "OBJECT_ID": "1986-088A", "EPOCH": "2025-12-20T11:19:33.907008", "MEAN_MOTION": 13.75252361, "ECCENTRICITY": 0.004127, "INCLINATION": 89.617, "RA_OF_ASC_NODE": 183.4641, "ARG_OF_PERICENTER": 96.9804, "MEAN_ANOMALY": 324.8252, "EPHEMERIS_TYPE": 0, "CLASSIFICATION_TYPE": "U", "NORAD_CAT_ID": 17070, "ELEMENT_SET_NO": 999, "REV_AT_EPOCH": 96085, "BSTAR": 9.2031e-05, "MEAN_MOTION_DOT": 1e-06, "MEAN_MOTION_DDOT": 0}, "tle": {"line1": "1 17070U 86088A   25354.47192022  .00000100  00000+0  92031-4 0  9990", "line2": "2 17070  89.6170 183.4641 0041270  96.9804 324.8252 13.75252361960854"}}, "geometry": {"type": "Point", "coordinates": [2.3493365062481297, 70.88048358807222]}}, {"type": "Feature", "properties": {"norad_id": 18361, "name": "OSCAR 27", "group": "nnss", "lat": -38.54628476180558, "lon": -100.72812036662484, "alt_km": 1023.7166949751654, "timestamp": "2025-12-20T16:47:36.555202+00:00", "meta": {"OBJECT_NAME": "OSCAR 27", "OBJECT_ID": "1987-080A", "EPOCH": "2025-12-20T12:08:20.549760", "MEAN_MOTION": 13.44908172, "ECCENTRICITY": 0.0103544, "INCLINATION": 90.374, "RA_OF_ASC_NODE": 79.5628, "ARG_OF_PERICENTER": 201.3956, "MEAN_ANOMALY": 158.2848, "EPHEMERIS_TYPE": 0, "CLASSIFICATION_TYPE": "U", "NORAD_CAT_ID": 18361, "ELEMENT_SET_NO": 999, "REV_AT_EPOCH": 87661, "BSTAR": 0.00014659, "MEAN_MOTION_DOT": 9.7e-07, "MEAN_MOTION_DDOT": 0}, "tle": {"line1": "1 18361U 87080A   25354.50579340  .00000097  00000+0  14659-3 0  9997", "line2": "2 18361  90.3740  79.5628 0103544 201.3956 158.2848 13.44908172876617"}}, "geometry": {"type": "Point", "coordinates": [-100.72812036662484, -38.54628476180558]}}, {"type": "Feature", "properties": {"norad_id": 18362, "name": "OSCAR 29", "group": "nnss", "lat": -37.122082799210844, "lon": -100.25450720276933, "alt_km": 1021.7101741680608, "timestamp": "2025-12-20T16:47:36.555212+00:00", "meta": {"OBJECT_NAME": "OSCAR 29", "OBJECT_ID": "1987-080B", "EPOCH": "2025-12-20T12:11:35.667744", "MEAN_MOTION": 13.44449676, "ECCENTRICITY": 0.0104399, "INCLINATION": 90.3751, "RA_OF_ASC_NODE": 80.0224, "ARG_OF_PERICENTER": 224.6444, "MEAN_ANOMALY": 145.356, "EPHEMERIS_TYPE": 0, "CLASSIFICATION_TYPE": "U", "NORAD_CAT_ID": 18362, "ELEMENT_SET_NO": 999, "REV_AT_EPOCH": 87614, "BSTAR": 0.00012855, "MEAN_MOTION_DOT": 8.5e-07, "MEAN_MOTION_DDOT": 0}, "tle": {"line1": "1 18362U 87080B   25354.50805171  .00000085  00000+0  12855-3 0  9995", "line2": "2 18362  90.3751  80.0224 0104399 224.6444 145.3560 13.44449676876143"}}, "geometry": {"type": "Point", "coordinates": [-100.25450720276933, -37.122082799210844]}}, {"type": "Feature", "properties": {"norad_id": 19070, "name": "OSCAR 23", "group": "nnss", "lat": -57.935039657484964, "lon": -163.8724773495352, "alt_km": 1134.9034851556253, "timestamp": "2025-12-20T16:47:36.555222+00:00", "meta": {"OBJECT_NAME": "OSCAR 23", "OBJECT_ID": "1988-033A", "EPOCH": "2025-12-20T01:17:13.826400", "MEAN_MOTION": 13.27788394, "ECCENTRICITY": 0.01901347, "INCLINATION": 90.3204, "RA_OF_ASC_NODE": 16.6192, "ARG_OF_PERICENTER": 159.6147, "MEAN_ANOMALY": 229.5476, "EPHEMERIS_TYPE": 0, "CLASSIFICATION_TYPE": "U", "NORAD_CAT_ID": 19070, "ELEMENT_SET_NO": 999, "REV_AT_EPOCH": 82350, "BSTAR": 0.00018124399, "MEAN_MOTION_DOT": 9.9e-07, "MEAN_MOTION_DDOT": 0}, "tle": {"line1": "1 19070U 88033A   25354.05363225  .00000099  00000+0  18124-3 0  9990", "line2": "2 19070  90.3204  16.6192 0190134 159.6147 229.5476 13.27788394823508"}}, "geometry": {"type": "Point", "coordinates": [-163.8724773495352, -57.935039657484964]}}, {"type": "Feature", "properties": {"norad_id": 19071, "name": "OSCAR 32", "group": "nnss", "lat": -10.226555735911717, "lon": 16.829556263952142, "alt_km": 1287.0171144980504, "timestamp": "2025-12-20T16:47:36.555232+00:00", "meta": {"OBJECT_NAME": "OSCAR 32", "OBJECT_ID": "1988-033B", "EPOCH": "2025-12-20T12:14:25.703808", "MEAN_MOTION": 13.27955164, "ECCENTRICITY": 0.0188962, "INCLINATION": 90.321, "RA_OF_ASC_NODE": 16.7657, "ARG_OF_PERICENTER": 145.2603, "MEAN_ANOMALY": 19.1565, "EPHEMERIS_TYPE": 0, "CLASSIFICATION_TYPE": "U", "NORAD_CAT_ID": 19071, "ELEMENT_SET_NO": 999, "REV_AT_EPOCH": 82368, "BSTAR": 0.00012125, "MEAN_MOTION_DOT": 7e-07, "MEAN_MOTION_DDOT": 0}, "tle": {"line1": "1 19071U 88033B   25354.51001972  .00000070  00000+0  12125-3 0  9994", "line2": "2 19071  90.3210  16.7657 0188962 145.2603  19.1565 13.27955164823689"}}, "geometry": {"type": "Point", "coordinates": [16.829556263952142, -10.226555735911717]}}, {"type": "Feature", "properties": {"norad_id": 19223, "name": "NOVA 2", "group": "nnss", "lat": 44.635559447801626, "lon": 78.27557197035252, "alt_km": 1155.0945584771234, "timestamp": "2025-12-20T16:47:36.555260+00:00", "meta": {"OBJECT_NAME": "NOVA 2", "OBJECT_ID": "1988-052A", "EPOCH": "2025-12-20T07:50:22.255008", "MEAN_MOTION": 13.22936602, "ECCENTRICITY": 0.0029944, "INCLINATION": 89.9869, "RA_OF_ASC_NODE": 78.2631, "ARG_OF_PERICENTER": 355.9806, "MEAN_ANOMALY": 72.6667, "EPHEMERIS_TYPE": 0, "CLASSIFICATION_TYPE": "U", "NORAD_CAT_ID": 19223, "ELEMENT_SET_NO": 999, "REV_AT_EPOCH": 81048, "BSTAR": 8.9438e-05, "MEAN_MOTION_DOT": 4.6e-07, "MEAN_MOTION_DDOT": 0}, "tle": {"line1": "1 19223U 88052A   25354.32664647  .00000046  00000+0  89438-4 0  9992", "line2": "2 19223  89.9869  78.2631 0029944 355.9806  72.6667 13.22936602810488"}}, "geometry": {"type": "Point", "coordinates": [78.27557197035252, 44.635559447801626]}}, {"type": "Feature", "properties": {"norad_id": 19419, "name": "OSCAR 25", "group": "nnss", "lat": -34.993683219728084, "lon": 20.293957806802595, "alt_km": 1120.2712071220858, "timestamp": "2025-12-20T16:47:36.555286+00:00", "meta": {"OBJECT_NAME": "OSCAR 25", "OBJECT_ID": "1988-074A", "EPOCH": "2025-12-20T12:26:18.131424", "MEAN_MOTION": 13.42624739, "ECCENTRICITY": 0.009487, "INCLINATION": 90.0339, "RA_OF_ASC_NODE": 20.2696, "ARG_OF_PERICENTER": 223.3113, "MEAN_ANOMALY": 304.1551, "EPHEMERIS_TYPE": 0, "CLASSIFICATION_TYPE": "U", "NORAD_CAT_ID": 19419, "ELEMENT_SET_NO": 999, "REV_AT_EPOCH": 82744, "BSTAR": 0.00013821, "MEAN_MOTION_DOT": 8.9e-07, "MEAN_MOTION_DDOT": 0}, "tle": {"line1": "1 19419U 88074A   25354.51826541  .00000089  00000+0  13821-3 0  9996", "line2": "2 19419  90.0339  20.2696 0094870 223.3113 304.1551 13.42624739827443"}}, "geometry": {"type": "Point", "coordinates": [20.293957806802595, -34.993683219728084]}}, {"type": "Feature", "properties": {"norad_id": 19420, "name": "OSCAR 31", "group": "nnss", "lat": -26.617876781109977, "lon": -159.39635795900196, "alt_km": 1036.774025020638, "timestamp": "2025-12-20T16:47:36.555305+00:00", "meta": {"OBJECT_NAME": "OSCAR 31", "OBJECT_ID": "1988-074B", "EPOCH": "2025-12-20T08:39:53.017056", "MEAN_MOTION": 13.42585906, "ECCENTRICITY": 0.0093226, "INCLINATION": 90.0354, "RA_OF_ASC_NODE": 20.6202, "ARG_OF_PERICENTER": 217.9149, "MEAN_ANOMALY": 152.7204, "EPHEMERIS_TYPE": 0, "CLASSIFICATION_TYPE": "U", "NORAD_CAT_ID": 19420, "ELEMENT_SET_NO": 999, "REV_AT_EPOCH": 82753, "BSTAR": 0.00014549, "MEAN_MOTION_DOT": 9.3e-07, "MEAN_MOTION_DDOT": 0}, "tle": {"line1": "1 19420U 88074B   25354.36103029  .00000093  00000+0  14549-3 0  9993", "line2": "2 19420  90.0354  20.6202 0093226 217.9149 152.7204 13.42585906827535"}}, "geometry": {"type": "Point", "coordinates": [-159.39635795900196, -26.617876781109977]}}]}